[{"OBJECT_NAME":"STARLINK-5990","OBJECT_ID":"2023-064A","EPOCH":"2026-01-20T21:14:15.859392","MEAN_MOTION":14.98648432,"ECCENTRICITY":0.00030956,"INCLINATION":69.9993,"RA_OF_ASC_NODE":265.0566,"ARG_OF_PERICENTER":313.0238,"MEAN_ANOMALY":47.0661,"EPHEMERIS_TYPE":0,"CLASSIFICATION_TYPE":"U","NORAD_CAT_ID":56448,"ELEMENT_SET_NO":999,"REV_AT_EPOCH":14808,"BSTAR":-0.0051099491,"MEAN_MOTION_DOT":-0.00061038,"MEAN_MOTION_DDOT":0},{"OBJECT_NAME":"STARLINK-5993","OBJECT_ID":"2023-064B","EPOCH":"2026-01-20T23:20:31.098624","MEAN_MOTION":14.98353682,"ECCENTRICITY":0.00028102,"INCLINATION":69.9997,"RA_OF_ASC_NODE":264.9631,"ARG_OF_PERICENTER":269.9627,"MEAN_ANOMALY":90.121,"EPHEMERIS_TYPE":0,"CLASSIFICATION_TYPE":"U","NORAD_CAT_ID":56449,"ELEMENT_SET_NO":999,"REV_AT_EPOCH":14809,"BSTAR":0.00042952045,"MEAN_MOTION_DOT":5.039e-5,"MEAN_MOTION_DDOT":0},{"OBJECT_NAME":"STARLINK-5970","OBJECT_ID":"2023-064C","EPOCH":"2026-01-20T17:53:55.068000","MEAN_MOTION":15.00216693,"ECCENTRICITY":0.00106924,"INCLINATION":69.9985,"RA_OF_ASC_NODE":265.3746,"ARG_OF_PERICENTER":234.6235,"MEAN_ANOMALY":125.3926,"EPHEMERIS_TYPE":0,"CLASSIFICATION_TYPE":"U","NORAD_CAT_ID":56450,"ELEMENT_SET_NO":999,"REV_AT_EPOCH":14806,"BSTAR":0.020708356,"MEAN_MOTION_DOT":0.00269803,"MEAN_MOTION_DDOT":0},{"OBJECT_NAME":"STARLINK-5985","OBJECT_ID":"2023-064D","EPOCH":"2026-01-20T23:14:30.446880","MEAN_MOTION":14.98351153,"ECCENTRICITY":0.00027827,"INCLINATION":69.9996,"RA_OF_ASC_NODE":264.9487,"ARG_OF_PERICENTER":270.0909,"MEAN_ANOMALY":89.9931,"EPHEMERIS_TYPE":0,"CLASSIFICATION_TYPE":"U","NORAD_CAT_ID":56451,"ELEMENT_SET_NO":999,"REV_AT_EPOCH":14809,"BSTAR":0.00036608008,"MEAN_MOTION_DOT":4.28e-5,"MEAN_MOTION_DDOT":0},{"OBJECT_NAME":"STARLINK-5986","OBJECT_ID":"2023-064E","EPOCH":"2026-01-20T23:08:31.360704","MEAN_MOTION":14.98331146,"ECCENTRICITY":0.00022908,"INCLINATION":69.9993,"RA_OF_ASC_NODE":264.9345,"ARG_OF_PERICENTER":272.0747,"MEAN_ANOMALY":88.015,"EPHEMERIS_TYPE":0,"CLASSIFICATION_TYPE":"U","NORAD_CAT_ID":56452,"ELEMENT_SET_NO":999,"REV_AT_EPOCH":14809,"BSTAR":1.2075673e-5,"MEAN_MOTION_DOT":5.1e-7,"MEAN_MOTION_DDOT":0},{"OBJECT_NAME":"STARLINK-5935","OBJECT_ID":"2023-064F","EPOCH":"2026-01-20T23:02:28.731264","MEAN_MOTION":14.98348697,"ECCENTRICITY":0.00025713,"INCLINATION":69.9984,"RA_OF_ASC_NODE":264.9183,"ARG_OF_PERICENTER":270.4595,"MEAN_ANOMALY":89.6269,"EPHEMERIS_TYPE":0,"CLASSIFICATION_TYPE":"U","NORAD_CAT_ID":56453,"ELEMENT_SET_NO":999,"REV_AT_EPOCH":14809,"BSTAR":0.00021508193,"MEAN_MOTION_DOT":2.475e-5,"MEAN_MOTION_DDOT":0},{"OBJECT_NAME":"STARLINK-5959","OBJECT_ID":"2023-064G","EPOCH":"2026-01-20T22:32:25.816416","MEAN_MOTION":14.98343554,"ECCENTRICITY":0.00026704,"INCLINATION":69.9983,"RA_OF_ASC_NODE":264.8449,"ARG_OF_PERICENTER":271.3372,"MEAN_ANOMALY":88.7481,"EPHEMERIS_TYPE":0,"CLASSIFICATION_TYPE":"U","NORAD_CAT_ID":56454,"ELEMENT_SET_NO":999,"REV_AT_EPOCH":14809,"BSTAR":0.00013873273,"MEAN_MOTION_DOT":1.563e-5,"MEAN_MOTION_DDOT":0},{"OBJECT_NAME":"STARLINK-5987","OBJECT_ID":"2023-064H","EPOCH":"2026-01-20T22:26:25.585440","MEAN_MOTION":14.98346694,"ECCENTRICITY":0.00024214,"INCLINATION":69.9992,"RA_OF_ASC_NODE":264.8307,"ARG_OF_PERICENTER":271.6225,"MEAN_ANOMALY":88.4657,"EPHEMERIS_TYPE":0,"CLASSIFICATION_TYPE":"U","NORAD_CAT_ID":56455,"ELEMENT_SET_NO":999,"REV_AT_EPOCH":14809,"BSTAR":0.0003320279,"MEAN_MOTION_DOT":3.873e-5,"MEAN_MOTION_DDOT":0},{"OBJECT_NAME":"STARLINK-5995","OBJECT_ID":"2023-064J","EPOCH":"2026-01-20T22:44:25.901664","MEAN_MOTION":14.98411624,"ECCENTRICITY":0.00028832,"INCLINATION":70.0003,"RA_OF_ASC_NODE":264.8773,"ARG_OF_PERICENTER":242.3322,"MEAN_ANOMALY":117.7545,"EPHEMERIS_TYPE":0,"CLASSIFICATION_TYPE":"U","NORAD_CAT_ID":56456,"ELEMENT_SET_NO":999,"REV_AT_EPOCH":14809,"BSTAR":-0.00080298393,"MEAN_MOTION_DOT":-9.681e-5,"MEAN_MOTION_DDOT":0},{"OBJECT_NAME":"STARLINK-5994","OBJECT_ID":"2023-064K","EPOCH":"2026-01-20T22:38:26.900160","MEAN_MOTION":14.98347935,"ECCENTRICITY":0.0003087,"INCLINATION":69.9992,"RA_OF_ASC_NODE":264.8587,"ARG_OF_PERICENTER":270.1146,"MEAN_ANOMALY":89.966,"EPHEMERIS_TYPE":0,"CLASSIFICATION_TYPE":"U","NORAD_CAT_ID":56457,"ELEMENT_SET_NO":999,"REV_AT_EPOCH":14809,"BSTAR":0.00059426451,"MEAN_MOTION_DOT":7.008e-5,"MEAN_MOTION_DDOT":0},{"OBJECT_NAME":"STARLINK-6050","OBJECT_ID":"2023-064L","EPOCH":"2026-01-20T18:03:15.202656","MEAN_MOTION":14.96656545,"ECCENTRICITY":0.00083085,"INCLINATION":69.9989,"RA_OF_ASC_NODE":265.3946,"ARG_OF_PERICENTER":16.0142,"MEAN_ANOMALY":344.1277,"EPHEMERIS_TYPE":0,"CLASSIFICATION_TYPE":"U","NORAD_CAT_ID":56458,"ELEMENT_SET_NO":999,"REV_AT_EPOCH":14806,"BSTAR":-0.033862545,"MEAN_MOTION_DOT":-0.00367768,"MEAN_MOTION_DDOT":0},{"OBJECT_NAME":"STARLINK-6048","OBJECT_ID":"2023-064M","EPOCH":"2026-01-21T00:00:02.999808","MEAN_MOTION":14.98331099,"ECCENTRICITY":0.00025207,"INCLINATION":70,"RA_OF_ASC_NODE":264.5682,"ARG_OF_PERICENTER":272.3563,"MEAN_ANOMALY":167.473,"EPHEMERIS_TYPE":0,"CLASSIFICATION_TYPE":"U","NORAD_CAT_ID":56459,"ELEMENT_SET_NO":999,"REV_AT_EPOCH":577,"BSTAR":0.0011511458,"MEAN_MOTION_DOT":0.00013669,"MEAN_MOTION_DDOT":0},{"OBJECT_NAME":"STARLINK-6047","OBJECT_ID":"2023-064N","EPOCH":"2026-01-20T22:20:26.723040","MEAN_MOTION":14.98321304,"ECCENTRICITY":0.00027687,"INCLINATION":69.9993,"RA_OF_ASC_NODE":264.816,"ARG_OF_PERICENTER":274.7793,"MEAN_ANOMALY":85.305,"EPHEMERIS_TYPE":0,"CLASSIFICATION_TYPE":"U","NORAD_CAT_ID":56460,"ELEMENT_SET_NO":999,"REV_AT_EPOCH":14809,"BSTAR":3.7020737e-5,"MEAN_MOTION_DOT":3.49e-6,"MEAN_MOTION_DDOT":0},{"OBJECT_NAME":"STARLINK-6037","OBJECT_ID":"2023-064P","EPOCH":"2026-01-20T23:32:33.060480","MEAN_MOTION":14.9831633,"ECCENTRICITY":0.00033229,"INCLINATION":69.9995,"RA_OF_ASC_NODE":264.5897,"ARG_OF_PERICENTER":245.4518,"MEAN_ANOMALY":114.6295,"EPHEMERIS_TYPE":0,"CLASSIFICATION_TYPE":"U","NORAD_CAT_ID":56461,"ELEMENT_SET_NO":999,"REV_AT_EPOCH":14810,"BSTAR":-0.00010945695,"MEAN_MOTION_DOT":-1.398e-5,"MEAN_MOTION_DDOT":0},{"OBJECT_NAME":"STARLINK-6045","OBJECT_ID":"2023-064Q","EPOCH":"2026-01-20T22:25:58.676160","MEAN_MOTION":14.98350645,"ECCENTRICITY":0.00026136,"INCLINATION":69.9992,"RA_OF_ASC_NODE":224.6557,"ARG_OF_PERICENTER":275.1293,"MEAN_ANOMALY":84.9567,"EPHEMERIS_TYPE":0,"CLASSIFICATION_TYPE":"U","NORAD_CAT_ID":56462,"ELEMENT_SET_NO":999,"REV_AT_EPOCH":14908,"BSTAR":-0.00011255353,"MEAN_MOTION_DOT":-1.436e-5,"MEAN_MOTION_DDOT":0},{"OBJECT_NAME":"STARLINK-6051","OBJECT_ID":"2023-064R","EPOCH":"2026-01-20T22:56:28.261824","MEAN_MOTION":14.98354387,"ECCENTRICITY":0.00026012,"INCLINATION":69.9989,"RA_OF_ASC_NODE":264.896,"ARG_OF_PERICENTER":267.5245,"MEAN_ANOMALY":92.5616,"EPHEMERIS_TYPE":0,"CLASSIFICATION_TYPE":"U","NORAD_CAT_ID":56463,"ELEMENT_SET_NO":999,"REV_AT_EPOCH":14809,"BSTAR":0.00013346531,"MEAN_MOTION_DOT":1.501e-5,"MEAN_MOTION_DDOT":0}]
