STARLINK-5990           
1 56448U 23064A   26020.88490578 -.00061038  00000+0 -51099-2 0  9996
2 56448  69.9993 265.0566 0003095 313.0238  47.0661 14.98648432148085
STARLINK-5993           
1 56449U 23064B   26020.97258216  .00005039  00000+0  42952-3 0  9994
2 56449  69.9997 264.9631 0002810 269.9627  90.1210 14.98353682148096
STARLINK-5970           
1 56450U 23064C   26020.74577625  .00269803  00000+0  20708-1 0  9993
2 56450  69.9985 265.3746 0010692 234.6235 125.3926 15.00216693148064
STARLINK-5985           
1 56451U 23064D   26020.96840795  .00004280  00000+0  36608-3 0  9993
2 56451  69.9996 264.9487 0002782 270.0909  89.9931 14.98351153148098
STARLINK-5986           
1 56452U 23064E   26020.96425186  .00000051  00000+0  12076-4 0  9993
2 56452  69.9993 264.9345 0002290 272.0747  88.0150 14.98331146148098
STARLINK-5935           
1 56453U 23064F   26020.96005476  .00002475  00000+0  21508-3 0  9991
2 56453  69.9984 264.9183 0002571 270.4595  89.6269 14.98348697148091
STARLINK-5959           
1 56454U 23064G   26020.93918769  .00001563  00000+0  13873-3 0  9990
2 56454  69.9983 264.8449 0002670 271.3372  88.7481 14.98343554148091
STARLINK-5987           
1 56455U 23064H   26020.93501835  .00003873  00000+0  33203-3 0  9998
2 56455  69.9992 264.8307 0002421 271.6225  88.4657 14.98346694148099
STARLINK-5995           
1 56456U 23064J   26020.94752201 -.00009681  00000+0 -80298-3 0  9996
2 56456  70.0003 264.8773 0002883 242.3322 117.7545 14.98411624148096
STARLINK-5994           
1 56457U 23064K   26020.94336690  .00007008  00000+0  59426-3 0  9995
2 56457  69.9992 264.8587 0003087 270.1146  89.9660 14.98347935148095
STARLINK-6050           
1 56458U 23064L   26020.75225929 -.00367768  00000+0 -33863-1 0  9996
2 56458  69.9989 265.3946 0008308  16.0142 344.1277 14.96656545148066
STARLINK-6048           
1 56459U 23064M   26021.00003472  .00013669  00000+0  11511-2 0  9996
2 56459  70.0000 264.5682 0002520 272.3563 167.4730 14.98331099  5772
STARLINK-6047           
1 56460U 23064N   26020.93086485  .00000349  00000+0  37021-4 0  9991
2 56460  69.9993 264.8160 0002768 274.7793  85.3050 14.98321304148095
STARLINK-6037           
1 56461U 23064P   26020.98093820 -.00001398  00000+0 -10946-3 0  9991
2 56461  69.9995 264.5897 0003322 245.4518 114.6295 14.98316330148101
STARLINK-6045           
1 56462U 23064Q   26020.93470690 -.00001436  00000+0 -11255-3 0  9998
2 56462  69.9992 224.6557 0002613 275.1293  84.9567 14.98350645149087
STARLINK-6051           
1 56463U 23064R   26020.95588266  .00001501  00000+0  13347-3 0  9995
2 56463  69.9989 264.8960 0002601 267.5245  92.5616 14.98354387148094
